ONEWEB-0446             
1 51640U 22012U   25077.69820305 -.00000615  00000+0 -17983-2 0  9990
2 51640  87.8845 127.0900 0001690  96.5612 263.5708 13.10372691149673
ONEWEB-0448             
1 51641U 22012V   25077.62682649 -.00000597  00000+0 -17457-2 0  9996
2 51641  87.8846 127.1039 0002031 100.8912 259.2444 13.10373406149631
ONEWEB-0449             
1 51642U 22012W   25078.16630874 -.00000707  00000+0 -20627-2 0  9996
2 51642  87.8839 126.9766 0001960 106.4310 253.7032 13.10374830151011
ONEWEB-0451             
1 51643U 22012X   25078.50306956  .00000068  00000+0  14172-3 0  9993
2 51643  87.9001  96.4088 0001861  97.5200 262.6143 13.17650582155081
ONEWEB-0452             
1 51644U 22012Y   25077.59015217  .00000026  00000+0  34061-4 0  9993
2 51644  87.9006  96.6484 0002098 101.3495 258.7872 13.17649939153674
ONEWEB-0456             
1 51646U 22012AA  25077.64177695  .00000048  00000+0  10063-3 0  9999
2 51646  87.8838 127.0431 0002056  93.1642 266.9720 13.10376959149686
ONEWEB-0457             
1 51647U 22012AB  25078.53481960 -.00000501  00000+0 -14725-2 0  9996
2 51647  87.8842 126.9127 0001791 109.8867 250.2454 13.10370821151103
ONEWEB-0458             
1 51648U 22012AC  25077.64014204  .00001398  00000+0  39684-2 0  9995
2 51648  87.8831 127.0852 0001777 103.6885 256.4440 13.10373190149646
